     2.100          NAVIGATION                              RINEX VERSION / TYPE
fic2rin                                 11/23/2009 01:21:52 PGM / RUN BY / DATE
                                                            END OF HEADER
 8 09 11 22  6  0  0.0  .274740159512D-07  .568434188608D-12  .000000000000D+00
     .104000000000D+03 -.406250000000D+02  .404266839337D-08  .105251504093D+01
    -.207312405109D-05  .110078812577D-01  .340305268764D-05  .515360858536D+04
     .216000000000D+05  .540167093277D-07 -.445877627039D+00  .124797224998D-06
     .991078827737D+00  .325375000000D+03  .306300349332D+01 -.804854954011D-08
    -.202508435289D-09  .100000000000D+01  .155900000000D+04  .000000000000D+00
     .240000000000D+01  .000000000000D+00 -.372529029846D-08  .104000000000D+03
     .144060000000D+05  .400000000000D+01
 9 09 11 22  6  0  0.0  .898395664990D-04  .204636307899D-11  .000000000000D+00
     .160000000000D+02 -.307812500000D+02  .446554315065D-08  .843400994168D+00
    -.180304050446D-05  .206170949386D-01  .388175249100D-05  .515362130547D+04
     .216000000000D+05 -.305473804474D-06 -.542635741242D+00 -.633299350739D-07
     .978602188995D+00  .318437500000D+03  .152068294008D+01 -.848463913356D-08
    -.889322758148D-10  .100000000000D+01  .155900000000D+04  .000000000000D+00
     .240000000000D+01  .000000000000D+00 -.558793544769D-08  .160000000000D+02
     .144060000000D+05  .400000000000D+01
10 09 11 22  6  0  0.0 -.288812443614D-04 -.909494701773D-12  .000000000000D+00
     .400000000000D+02  .391250000000D+02  .446018578464D-08 -.168962565283D+01
     .181980431080D-05  .878000119701D-02  .871717929840D-05  .515340585136D+04
     .216000000000D+05  .502914190292D-07 -.258293037269D+01 -.160187482834D-06
     .956104046463D+00  .204156250000D+03  .620901984294D+00 -.786675625340D-08
    -.152149194768D-09  .100000000000D+01  .155900000000D+04  .000000000000D+00
     .340000000000D+01  .000000000000D+00 -.279396772385D-08  .400000000000D+02
     .144060000000D+05  .400000000000D+01
11 09 11 22  6  0  0.0 -.304654240608D-04 -.193267624127D-11  .000000000000D+00
     .200000000000D+02  .668750000000D+01  .645312594145D-08  .155643184933D+01
     .325962901115D-06  .102591328323D-01  .624172389507D-05  .515370359612D+04
     .216000000000D+05 -.175088644028D-06  .240644343967D+01  .409781932831D-07
     .888839734417D+00  .222687500000D+03  .762114211493D+00 -.900466079455D-08
    -.116433421348D-09  .100000000000D+01  .155900000000D+04  .000000000000D+00
     .240000000000D+01  .000000000000D+00 -.116415321827D-07  .200000000000D+02
     .144060000000D+05  .400000000000D+01
12 09 11 22  6  0  0.0 -.186708755791D-03  .522959453519D-11  .000000000000D+00
     .740000000000D+02 -.779687500000D+02  .425339145654D-08  .179112381179D+01
    -.409036874771D-05  .317569565959D-02  .823847949505D-05  .515381296730D+04
     .216000000000D+05  .316649675369D-07  .542615238446D+00  .279396772385D-07
     .968894861491D+00  .223437500000D+03 -.562743831122D+00 -.782782606038D-08
    -.267868300647D-10  .100000000000D+01  .155900000000D+04  .000000000000D+00
     .240000000000D+01  .000000000000D+00 -.121071934700D-07  .740000000000D+02
     .144060000000D+05  .400000000000D+01
13 09 11 22  6  0  0.0  .306344125420D-03  .113686837722D-12  .000000000000D+00
     .108000000000D+03  .812812500000D+02  .388409035938D-08 -.222963517232D+01
     .426918268204D-05  .393973675091D-02  .563263893127D-05  .515362516212D+04
     .216000000000D+05  .670552253723D-07 -.149558971839D+01  .409781932831D-07
     .993837016409D+00  .288750000000D+03  .165452887736D+01 -.779532470656D-08
     .218223375594D-09  .100000000000D+01  .155900000000D+04  .000000000000D+00
     .340000000000D+01  .000000000000D+00 -.111758708954D-07  .108000000000D+03
     .144060000000D+05  .400000000000D+01
14 09 11 22  6  0  0.0 -.214041210711D-04  .477484718431D-11  .000000000000D+00
     .770000000000D+02  .690000000000D+02  .397016537332D-08 -.231679827309D+01
     .363029539585D-05  .508444884326D-02  .508129596710D-05  .515367626381D+04
     .216000000000D+05  .782310962677D-07 -.151622528386D+01  .558793544769D-08
     .987224911960D+00  .295156250000D+03 -.211384680385D+01 -.782354016757D-08
     .184293390845D-09  .100000000000D+01  .155900000000D+04  .000000000000D+00
     .240000000000D+01  .000000000000D+00 -.884756445885D-08  .770000000000D+02
     .144060000000D+05  .400000000000D+01
15 09 11 22  6  0  0.0 -.319750513881D-03  .682121026330D-12  .000000000000D+00
     .770000000000D+02  .705000000000D+02  .471948229967D-08 -.210732537691D+01
     .373274087906D-05  .203714997042D-02  .604242086411D-05  .515368899155D+04
     .216000000000D+05 -.521540641785D-07 -.157437913313D+01 -.149011611938D-07
     .955052868140D+00  .263187500000D+03 -.467397049580D+00 -.818962684512D-08
     .174292974288D-09  .100000000000D+01  .155900000000D+04  .000000000000D+00
     .240000000000D+01  .000000000000D+00 -.977888703346D-08  .770000000000D+02
     .144060000000D+05  .400000000000D+01
17 09 11 22  6  0  0.0  .104682520032D-03  .375166564481D-11  .000000000000D+00
     .370000000000D+02 -.828125000000D+01  .450947355196D-08 -.180540505215D+01
    -.314787030220D-06  .481192290317D-02  .851228833199D-05  .515375336456D+04
     .216000000000D+05  .186264514923D-07  .160270033184D+01 -.949949026108D-07
     .959487686742D+00  .216718750000D+03 -.264882811883D+01 -.781996859022D-08
     .343585740297D-09  .100000000000D+01  .155900000000D+04  .000000000000D+00
     .240000000000D+01  .000000000000D+00 -.102445483208D-07  .370000000000D+02
     .144060000000D+05  .400000000000D+01
18 09 11 22  6  0  0.0  .293590128422D-04  .272848410532D-11  .000000000000D+00
     .280000000000D+02  .467187500000D+02  .492877673191D-08 -.442666398969D+00
     .258162617683D-05  .109096823726D-01  .867061316967D-05  .515365086746D+04
     .216000000000D+05  .130385160446D-07 -.258019479341D+01  .201165676117D-06
     .940110263000D+00  .203843750000D+03 -.235883877899D+01 -.833820446254D-08
    -.186079179516D-09  .100000000000D+01  .155900000000D+04  .000000000000D+00
     .240000000000D+01  .000000000000D+00 -.107102096081D-07  .280000000000D+02
     .144060000000D+05  .400000000000D+01
19 09 11 22  6  0  0.0  .186264514923D-07 -.193267624127D-11  .000000000000D+00
     .390000000000D+02  .409375000000D+01  .464662212189D-08 -.247949744459D+01
     .234693288803D-06  .590971729252D-02  .841170549393D-05  .515367066765D+04
     .216000000000D+05 -.102445483208D-06  .165826333271D+01  .409781932831D-07
     .957162532061D+00  .217031250000D+03 -.199343986403D+00 -.797354641593D-08
     .333942481473D-09  .100000000000D+01  .155900000000D+04  .000000000000D+00
     .240000000000D+01  .000000000000D+00 -.144354999065D-07  .390000000000D+02
     .144060000000D+05  .400000000000D+01
20 09 11 22  6  0  0.0  .670799054205D-04 -.795807864051D-12  .000000000000D+00
     .510000000000D+02  .465625000000D+02  .491091884520D-08 -.265253845505D+00
     .231526792049D-05  .399798876606D-02  .893510878086D-05  .515373642349D+04
     .216000000000D+05 -.372529029846D-08 -.263407849453D+01  .298023223877D-07
     .939891967827D+00  .200375000000D+03  .128793001555D+01 -.820784188956D-08
    -.251081887140D-09  .100000000000D+01  .155900000000D+04  .000000000000D+00
     .240000000000D+01  .000000000000D+00 -.745058059692D-08  .510000000000D+02
     .144060000000D+05  .400000000000D+01
21 09 11 22  6  0  0.0 -.228867866099D-04 -.238742359215D-11  .000000000000D+00
     .920000000000D+02  .568750000000D+01  .535022285826D-08  .745956152571D+00
     .482425093651D-06  .156793440692D-01  .649318099022D-05  .515373022842D+04
     .216000000000D+05 -.143423676491D-06  .264562907979D+01  .247731804848D-06
     .933404395743D+00  .240968750000D+03 -.254600109482D+01 -.854249868650D-08
    -.306441335940D-09  .100000000000D+01  .155900000000D+04  .000000000000D+00
     .240000000000D+01  .000000000000D+00 -.121071934700D-07  .920000000000D+02
     .144060000000D+05  .400000000000D+01
22 09 11 22  6  0  0.0  .185734126717D-03 -.795807864051D-12  .000000000000D+00
     .140000000000D+02  .471562500000D+02  .485841665827D-08 -.147289797767D+01
     .254064798355D-05  .526278140023D-02  .859051942825D-05  .515366766357D+04
     .216000000000D+05  .838190317154D-07 -.257488578178D+01  .158324837685D-06
     .937782782280D+00  .200937500000D+03 -.187462252368D+01 -.813426739632D-08
    -.192865176466D-09  .100000000000D+01  .155900000000D+04  .000000000000D+00
     .240000000000D+01  .000000000000D+00 -.176951289177D-07  .140000000000D+02
     .144060000000D+05  .400000000000D+01
23 09 11 22  6  0  0.0  .385663472116D-03 -.568434188608D-12  .000000000000D+00
     .104000000000D+03  .845312500000D+02  .434160941689D-08 -.300551357333D+01
     .446662306786D-05  .634878361598D-02  .558421015739D-05  .515375675392D+04
     .216000000000D+05 -.670552253723D-07 -.155189168892D+01  .558793544769D-08
     .969139955861D+00  .279531250000D+03  .300654762527D+01 -.799640451092D-08
     .196793911542D-09  .100000000000D+01  .155900000000D+04  .000000000000D+00
     .340000000000D+01  .000000000000D+00 -.200234353542D-07  .104000000000D+03
     .144060000000D+05  .400000000000D+01
24 09 11 22  6  0  0.0  .238592736423D-03  .318323145621D-11  .000000000000D+00
     .116000000000D+03  .140625000000D+01  .495270630010D-08 -.593571069943D+00
     .372529029846D-08  .620377017185D-02  .647641718388D-05  .515366535378D+04
     .216000000000D+05 -.298023223877D-07  .268077062495D+01 -.949949026108D-07
     .950051231687D+00  .247750000000D+03 -.576956744427D+00 -.825712965688D-08
    -.102504269714D-09  .100000000000D+01  .155900000000D+04  .000000000000D+00
     .485000000000D+01  .630000000000D+02 -.139698386192D-08  .116000000000D+03
     .144060000000D+05  .400000000000D+01
